LIME                    
1 62648U 25009AR  26068.73906781  .00013254  00000+0  47723-3 0  9995
2 62648  97.3985 151.4831 0001635  35.9029 324.2320 15.28703313 63766
STARLINK-36138          
1 67030U 25294A   26068.26898000  .00024572  00000+0  90057-3 0  9996
2 67030  43.0005  40.5564 0001731 260.1910  99.8746 15.27539097 14731
